NORAD_CAT_ID,OBJECT_NAME,OBJECT_TYPE,EPOCH,MEAN_MOTION,ECCENTRICITY,INCLINATION,RA_OF_ASC_NODE,ARG_OF_PERICENTER,MEAN_ANOMALY,BSTAR,MEAN_MOTION_DOT,MEAN_MOTION_DDOT,TLE_LINE0,TLE_LINE1,TLE_LINE2,SEMIMAJOR_AXIS,PERIOD,APOGEE,PERIGEE,DECAYED
51960.0,STARLINK-3691,PAYLOAD,2024-01-24 22:24:47,15.04769033,0.0001196,53.055,271.7856,105.8205,254.2915,3.2327e-05,1.84e-06,0.0,0 STARLINK-3691,1 51960U 22025E   24024.93388011  .00000184  00000-0  32327-4 0  9991,2 51960  53.0550 271.7856 0001196 105.8205 254.2915 15.04769033104107,6930.352,95.696,553.046,551.388,0.0
51960.0,STARLINK-3691,PAYLOAD,2024-01-25 00:00:25,15.04769852,0.0001198,53.0551,271.4873,101.6713,258.4409,2.6042e-05,9.4e-07,0.0,0 STARLINK-3691,1 51960U 22025E   24025.00029875  .00000094  00000-0  26042-4 0  9997,2 51960  53.0551 271.4873 0001198 101.6713 258.4409 15.04769852104118,6930.349,95.696,553.044,551.384,0.0
51960.0,STARLINK-3691,PAYLOAD,2024-01-25 22:19:26,15.04761982,0.0001231,53.0542,267.3296,103.8102,256.3023,6.6386e-05,6.69e-06,0.0,0 STARLINK-3691,1 51960U 22025E   24025.93016647  .00000669  00000-0  66386-4 0  9995,2 51960  53.0542 267.3296 0001231 103.8102 256.3023 15.04761982104255,6930.373,95.696,553.092,551.385,0.0
51960.0,STARLINK-3691,PAYLOAD,2024-01-26 19:02:47,15.04770227,0.0001349,53.0548,263.4629,88.1747,271.9396,7.4905e-05,7.91e-06,0.0,0 STARLINK-3691,1 51960U 22025E   24026.79360603  .00000791  00000-0  74905-4 0  9996,2 51960  53.0548 263.4629 0001349  88.1747 271.9396 15.04770227105471,6930.348,95.696,553.148,551.278,0.0
51960.0,STARLINK-3691,PAYLOAD,2024-01-26 22:14:04,15.04767991,0.000124,53.0542,262.8696,102.508,257.6047,4.8896e-05,4.2e-06,0.0,0 STARLINK-3691,1 51960U 22025E   24026.92644496  .00000420  00000-0  48896-4 0  9995,2 51960  53.0542 262.8696 0001240 102.5080 257.6047 15.04767991104403,6930.355,95.696,553.079,551.361,0.0
51960.0,STARLINK-3691,PAYLOAD,2024-01-27 18:57:26,15.04769034,0.0001138,53.0542,258.9925,89.6057,270.5062,-3.0184e-07,-2.81e-06,0.0,0 STARLINK-3691,1 51960U 22025E   24027.78988984 -.00000281  00000-0 -30184-6 0  9993,2 51960  53.0542 258.9925 0001138  89.6057 270.5062 15.04769034105625,6930.352,95.696,553.005,551.428,0.0
51960.0,STARLINK-3691,PAYLOAD,2024-01-27 22:08:43,15.04767542,0.0001166,53.0543,258.4003,96.255,263.8571,-1.3542e-05,-4.7e-06,0.0,0 STARLINK-3691,1 51960U 22025E   24027.92272828 -.00000470  00000-0 -13542-4 0  9999,2 51960  53.0543 258.4003 0001166  96.2550 263.8571 15.04767542104554,6930.356,95.696,553.029,551.413,0.0
51960.0,STARLINK-3691,PAYLOAD,2024-01-28 01:20:00,15.04767265,0.0001225,53.0545,257.8093,102.8785,257.234,-1.4228e-05,-4.8e-06,0.0,0 STARLINK-3691,1 51960U 22025E   24028.05556618 -.00000480  00000-0 -14228-4 0  9999,2 51960  53.0545 257.8093 0001225 102.8785 257.2340 15.04767265104573,6930.357,95.696,553.071,551.373,0.0
51960.0,STARLINK-3691,PAYLOAD,2024-01-28 20:27:44,15.04763742,0.0001251,53.0546,254.2397,99.292,260.821,8.7262e-06,-1.53e-06,0.0,0 STARLINK-3691,1 51960U 22025E   24028.85259403 -.00000153  00000-0  87262-5 0  9994,2 51960  53.0546 254.2397 0001251  99.2920 260.8210 15.04763742104696,6930.368,95.696,553.1,551.366,0.0
51960.0,STARLINK-3691,PAYLOAD,2024-01-28 23:39:01,15.04765667,0.0001284,53.0549,253.6448,101.358,258.7552,2.7957e-05,1.22e-06,0.0,0 STARLINK-3691,1 51960U 22025E   24028.98542993  .00000122  00000-0  27957-4 0  9996,2 51960  53.0549 253.6448 0001284 101.3580 258.7552 15.04765667105809,6930.362,95.696,553.117,551.337,0.0
51960.0,STARLINK-3691,PAYLOAD,2024-01-30 13:54:27,15.04766621,0.0001282,53.0548,246.505,96.634,263.4794,5.0762e-05,4.47e-06,0.0,0 STARLINK-3691,1 51960U 22025E   24030.57948147  .00000447  00000-0  50762-4 0  9995,2 51960  53.0548 246.5050 0001282  96.6340 263.4794 15.04766621104953,6930.359,95.696,553.113,551.336,0.0
51960.0,STARLINK-3691,PAYLOAD,2024-01-30 18:41:22,15.04767833,0.0001269,53.0548,245.6136,95.2487,264.8646,5.8693e-05,5.6e-06,0.0,0 STARLINK-3691,1 51960U 22025E   24030.77873662  .00000560  00000-0  58693-4 0  9993,2 51960  53.0548 245.6136 0001269  95.2487 264.8646 15.04767833106072,6930.355,95.696,553.1,551.341,0.0
51960.0,STARLINK-3691,PAYLOAD,2024-01-30 21:52:39,15.04778328,0.0001453,53.0549,245.0148,95.1256,264.9898,0.00015101,1.877e-05,0.0,0 STARLINK-3691,1 51960U 22025E   24030.91156479  .00001877  00000-0  15101-3 0  9997,2 51960  53.0549 245.0148 0001453  95.1256 264.9898 15.04778328105001,6930.323,95.695,553.195,551.181,0.0
51960.0,STARLINK-3691,PAYLOAD,2024-01-31 13:49:05,15.04771158,0.0001411,53.0559,242.0463,93.142,266.973,3.7813e-05,2.62e-06,0.0,0 STARLINK-3691,1 51960U 22025E   24031.57575898  .00000262  00000-0  37813-4 0  9992,2 51960  53.0559 242.0463 0001411  93.1420 266.9730 15.04771158105106,6930.345,95.696,553.188,551.232,0.0
51960.0,STARLINK-3691,PAYLOAD,2024-01-31 23:22:57,15.04763277,0.0001322,53.0565,240.2601,101.2214,258.8923,-2.3177e-05,-6.07e-06,0.0,0 STARLINK-3691,1 51960U 22025E   24031.97427812 -.00000607  00000-0 -23177-4 0  9991,2 51960  53.0565 240.2601 0001322 101.2214 258.8923 15.04763277106254,6930.369,95.696,553.151,551.318,0.0
51960.0,STARLINK-3691,PAYLOAD,2024-02-02 18:25:19,15.04766792,0.0001382,53.0553,232.2301,98.5575,261.5569,2.0588e-05,1.6e-07,0.0,0 STARLINK-3691,1 51960U 22025E   24033.76758335  .00000016  00000-0  20588-4 0  9992,2 51960  53.0553 232.2301 0001382  98.5575 261.5569 15.04766792106525,6930.359,95.696,553.181,551.266,0.0
51960.0,STARLINK-3691,PAYLOAD,2024-02-02 20:00:57,15.04764342,0.0001205,53.0543,231.9305,90.163,269.9496,6.6816e-05,6.76e-06,0.0,0 STARLINK-3691,1 51960U 22025E   24033.83400148  .00000676  00000-0  66816-4 0  9992,2 51960  53.0543 231.9305 0001205  90.1630 269.9496 15.04764342105448,6930.366,95.696,553.066,551.396,0.0
51960.0,STARLINK-3691,PAYLOAD,2024-02-03 13:33:02,15.04764332,0.0001346,53.0546,228.6611,101.5393,258.5746,2.5917e-05,9.2e-07,0.0,0 STARLINK-3691,1 51960U 22025E   24034.56461087  .00000092  00000-0  25917-4 0  9991,2 51960  53.0546 228.6611 0001346 101.5393 258.5746 15.04764332105556,6930.366,95.696,553.164,551.298,0.0
51960.0,STARLINK-3691,PAYLOAD,2024-02-03 19:55:36,15.04764504,0.0001259,53.0548,227.4719,94.8134,265.2998,1.3516e-05,-8.4e-07,0.0,0 STARLINK-3691,1 51960U 22025E   24034.83028743 -.00000084  00000-0  13516-4 0  9993,2 51960  53.0548 227.4719 0001259  94.8134 265.2998 15.04764504106684,6930.366,95.696,553.103,551.358,0.0
51960.0,STARLINK-3691,PAYLOAD,2024-02-04 21:25:54,15.04766948,0.0001231,53.0546,222.7131,92.5438,267.5691,3.3555e-05,2.01e-06,0.0,0 STARLINK-3691,1 51960U 22025E   24035.89298720  .00000201  00000-0  33555-4 0  9999,2 51960  53.0546 222.7131 0001231  92.5438 267.5691 15.04766948106847,6930.358,95.696,553.076,551.37,0.0
51960.0,STARLINK-3691,PAYLOAD,2024-02-05 11:46:41,15.04766727,0.0001199,53.0546,220.0364,91.9966,268.116,5.2346e-05,4.69e-06,0.0,0 STARLINK-3691,1 51960U 22025E   24036.49075594  .00000469  00000-0  52346-4 0  9993,2 51960  53.0546 220.0364 0001199  91.9966 268.1160 15.04766727105840,6930.359,95.696,553.055,551.393,0.0
51960.0,STARLINK-3691,PAYLOAD,2024-02-05 19:44:54,15.04765275,0.0001197,53.0548,218.5491,89.9187,270.1938,3.5438e-05,2.28e-06,0.0,0 STARLINK-3691,1 51960U 22025E   24036.82285174  .00000228  00000-0  35438-4 0  9993,2 51960  53.0548 218.5491 0001197  89.9187 270.1938 15.04765275105893,6930.363,95.696,553.058,551.399,0.0
51960.0,STARLINK-3691,PAYLOAD,2024-02-06 11:41:19,15.04769778,0.0001162,53.0548,215.5738,92.7552,267.357,4.0235e-05,2.97e-06,0.0,0 STARLINK-3691,1 51960U 22025E   24037.48703624  .00000297  00000-0  40235-4 0  9998,2 51960  53.0548 215.5738 0001162  92.7552 267.3570 15.04769778107089,6930.349,95.696,553.02,551.409,0.0
51960.0,STARLINK-3691,PAYLOAD,2024-02-06 18:03:54,15.04768586,0.0001159,53.0549,214.384,92.7992,267.3129,2.5582e-05,8.8e-07,0.0,0 STARLINK-3691,1 51960U 22025E   24037.75271220  .00000088  00000-0  25582-4 0  9996,2 51960  53.0549 214.3840 0001159  92.7992 267.3129 15.04768586106035,6930.353,95.696,553.021,551.415,0.0
51960.0,STARLINK-3691,PAYLOAD,2024-02-07 14:47:16,15.04766098,0.0001157,53.0552,210.5179,87.647,272.4651,5.3562e-06,-2.01e-06,0.0,0 STARLINK-3691,1 51960U 22025E   24038.61615907 -.00000201  00000-0  53562-5 0  9994,2 51960  53.0552 210.5179 0001157  87.6470 272.4651 15.04766098106161,6930.361,95.696,553.028,551.424,0.0
51960.0,STARLINK-3691,PAYLOAD,2024-02-07 16:22:54,15.0476563,0.0001021,53.0552,210.2206,84.4758,275.6346,4.8645e-06,-2.08e-06,0.0,0 STARLINK-3691,1 51960U 22025E   24038.68257817 -.00000208  00000-0  48645-5 0  9996,2 51960  53.0552 210.2206 0001021  84.4758 275.6346 15.04765630107262,6930.362,95.696,552.935,551.52,0.0
51960.0,STARLINK-3691,PAYLOAD,2024-02-08 14:41:55,15.04759197,0.00011,53.0548,206.0573,90.3537,269.7577,-2.7092e-05,-6.63e-06,0.0,0 STARLINK-3691,1 51960U 22025E   24039.61244506 -.00000663  00000-0 -27092-4 0  9999,2 51960  53.0548 206.0573 0001100  90.3537 269.7577 15.04759197106312,6930.382,95.696,553.009,551.485,0.0
51960.0,STARLINK-3691,PAYLOAD,2024-02-08 17:53:12,15.04761133,0.0001188,53.0549,205.4619,97.6698,262.4425,-1.6196e-05,-5.08e-06,0.0,0 STARLINK-3691,1 51960U 22025E   24039.74528139 -.00000508  00000-0 -16196-4 0  9991,2 51960  53.0549 205.4619 0001188  97.6698 262.4425 15.04761133107429,6930.376,95.696,553.064,551.418,0.0
51960.0,STARLINK-3691,PAYLOAD,2024-02-09 14:36:34,15.04759637,0.000109,53.0546,201.5977,99.4729,260.6383,-4.3915e-05,-9.03e-06,0.0,0 STARLINK-3691,1 51960U 22025E   24040.60872925 -.00000903  00000-0 -43915-4 0  9991,2 51960  53.0546 201.5977 0001090  99.4729 260.6383 15.04759637106469,6930.381,95.696,553.001,551.49,0.0
51960.0,STARLINK-3691,PAYLOAD,2024-02-09 16:12:12,15.04760223,0.0001042,53.0549,201.3005,92.7257,267.385,-3.8812e-05,-8.3e-06,0.0,0 STARLINK-3691,1 51960U 22025E   24040.67514804 -.00000830  00000-0 -38812-4 0  9996,2 51960  53.0549 201.3005 0001042  92.7257 267.3850 15.04760223106478,6930.379,95.696,552.966,551.522,0.0
